OBJECT_NAME,OBJECT_ID,EPOCH,MEAN_MOTION,ECCENTRICITY,INCLINATION,RA_OF_ASC_NODE,ARG_OF_PERICENTER,MEAN_ANOMALY,EPHEMERIS_TYPE,CLASSIFICATION_TYPE,NORAD_CAT_ID,ELEMENT_SET_NO,REV_AT_EPOCH,BSTAR,MEAN_MOTION_DOT,MEAN_MOTION_DDOT
STARLINK-34989,2025-179S,2026-06-12T01:44:15.648576,15.05658149,.0000394,97.3708,205.2325,123.5847,236.5418,0,U,65251,999,4619,.35740392E-3,.5104E-4,0
STARLINK-34961,2025-179T,2026-06-12T02:12:08.833824,15.05659332,.00017622,97.3688,205.2055,102.0909,258.0516,0,U,65252,999,4603,.27510704E-3,.3915E-4,0
STARLINK-34933,2025-179U,2026-06-12T20:20:43.808928,15.05658955,.000216,97.3676,205.8666,93.6435,266.5039,0,U,65253,999,4613,.33893E-3,.4837E-4,0
STARLINK-34979,2025-179V,2026-06-12T20:28:41.958624,15.05660246,.0001052,97.3671,205.8603,129.0439,231.0882,0,U,65254,999,4613,.2918E-3,.4156E-4,0
STARLINK-34987,2025-179W,2026-06-12T20:12:45.260064,15.05660287,.0001814,97.3669,205.8727,90.2725,269.8710,0,U,65255,999,4612,.49976E-3,.7163E-4,0
STARLINK-34971,2025-179X,2026-06-12T06:51:16.170048,15.05666689,.00016658,97.3680,205.4032,133.1910,226.9457,0,U,65256,999,4578,.50267653E-3,.7206E-4,0
STARLINK-34966,2025-179Y,2026-06-12T01:56:11.785344,15.05660668,.00008591,97.3699,205.2206,121.6789,238.4522,0,U,65257,999,4613,.29029211E-3,.4135E-4,0
STARLINK-34980,2025-179Z,2026-06-12T19:56:48.386976,15.05657659,.000201,97.3674,205.8908,127.9488,232.1921,0,U,65258,999,4613,.21059E-3,.2983E-4,0
STARLINK-34922,2025-184A,2026-06-12T03:10:46.765344,15.05671897,.00013059,97.3693,214.9591,130.7539,229.3802,0,U,65273,999,4551,.16473598E-3,.2322E-4,0
STARLINK-34904,2025-184B,2026-06-12T03:50:39.168384,15.05643950,.00019532,97.3755,214.9276,10.3298,349.7969,0,U,65274,999,4551,-.24157554E-3,-.3541E-4,0
STARLINK-34954,2025-184C,2026-06-12T20:00:01.999008,15.05655825,.0002062,97.3652,215.5195,116.0497,185.6662,0,U,65275,999,562,-.29532E-2,-.42423E-3,0
STARLINK-34968,2025-184D,2026-06-12T03:30:42.889536,15.05660317,.00026604,97.3691,214.9438,101.6835,258.4691,0,U,65276,999,4551,.27218405E-3,.3873E-4,0
STARLINK-34935,2025-184E,2026-06-12T20:31:31.174752,15.05660872,.0002479,97.3667,215.6683,112.7037,247.4453,0,U,65277,999,4562,.28886E-3,.4114E-4,0
STARLINK-35000,2025-184F,2026-06-12T02:26:54.210048,15.05662808,.00010631,97.3699,214.8477,136.1396,223.9916,0,U,65278,999,4550,.34380676E-3,.4908E-4,0
STARLINK-35023,2025-184G,2026-06-12T03:42:40.316256,15.05666272,.0002054,97.3691,214.9328,108.0288,252.1163,0,U,65279,999,4551,.50213095E-3,.7198E-4,0
STARLINK-35001,2025-184H,2026-06-12T03:18:45.318528,15.05659075,.00024382,97.3685,214.9548,102.5895,257.5606,0,U,65280,999,4551,.25946036E-3,.3689E-4,0
STARLINK-35010,2025-184J,2026-06-12T03:06:47.473632,15.05658686,.00015183,97.3689,214.9636,100.0752,260.0647,0,U,65281,999,4551,.26341878E-3,.3746E-4,0
STARLINK-35021,2025-184K,2026-06-12T02:50:50.724096,15.05657579,.00014399,97.3694,214.9796,117.9041,242.2332,0,U,65282,999,4546,.2590882E-3,.3683E-4,0
STARLINK-35015,2025-184L,2026-06-12T02:34:52.713120,15.05659596,.0001061,97.3694,214.8388,107.3277,252.8066,0,U,65283,999,4550,.27647121E-3,.3935E-4,0
STARLINK-35006,2025-184M,2026-06-12T17:48:01.494144,15.05658338,.0001365,97.3660,215.5155,95.0943,265.0440,0,U,65284,999,4560,.20577E-3,.2913E-4,0
STARLINK-34995,2025-184N,2026-06-12T03:46:39.446400,15.05665639,.00019296,97.3687,214.9280,106.0852,254.0588,0,U,65285,999,4551,.39237231E-3,.5611E-4,0
STARLINK-35048,2025-184P,2026-06-12T19:31:42.034944,15.05662386,.0001955,97.3668,215.5710,106.4879,253.6564,0,U,65286,999,4556,.40453E-3,.5786E-4,0
STARLINK-35007,2025-184Q,2026-06-12T02:22:55.085952,15.05657327,.00010151,97.3716,214.8529,126.0059,234.1263,0,U,65287,999,4544,.25365357E-3,.3605E-4,0
STARLINK-35018,2025-184R,2026-06-12T03:14:46.082112,15.05660627,.00023562,97.3691,214.9588,102.7291,257.4200,0,U,65288,999,4551,.23994306E-3,.3407E-4,0
STARLINK-34845,2025-184S,2026-06-12T20:35:30.461280,15.05660088,.0002287,97.3670,215.6622,82.6458,277.5029,0,U,65289,999,4562,.29573E-3,.4213E-4,0
STARLINK-34984,2025-184T,2026-06-12T03:22:44.524704,15.05656020,.00020332,97.3701,214.9483,97.2644,262.8815,0,U,65290,999,4551,.13913217E-3,.1951E-4,0
STARLINK-35002,2025-184U,2026-06-12T02:38:51.915840,15.05660886,.00010833,97.3697,214.8357,81.0935,279.0415,0,U,65291,999,4550,.28446955E-3,.405E-4,0
STARLINK-35017,2025-184V,2026-06-12T02:54:51.492384,15.05671673,.00018763,97.3690,214.9757,91.1434,269.0008,0,U,65292,999,4546,.53115546E-3,.7619E-4,0
STARLINK-34951,2025-184W,2026-06-12T03:38:41.102304,15.05664281,.00015958,97.3686,214.9360,119.7257,240.4129,0,U,65293,999,4551,.51424135E-3,.7373E-4,0
STARLINK-34613,2025-184X,2026-06-12T03:54:37.831104,15.05660854,.00019317,97.3718,214.9204,156.4627,203.6689,0,U,65294,999,4551,.29367586E-3,.4184E-4,0
STARLINK-34834,2025-184Y,2026-06-12T02:46:50.494944,15.05659307,.0001813,97.3692,214.8306,107.2842,252.8584,0,U,65295,999,4550,.28055179E-3,.3994E-4,0
STARLINK-34872,2025-184Z,2026-06-12T02:30:53.423136,15.05660601,.00009578,97.3693,214.8445,139.8820,220.2479,0,U,65296,999,4550,.39834038E-3,.5696E-4,0
STARLINK-34899,2025-189A,2026-06-12T04:39:38.425536,15.31714385,.00011421,53.1563,127.2100,91.8110,268.3022,0,U,65323,999,4558,.82360289E-3,.2529E-3,0
STARLINK-34196,2025-189B,2026-06-12T04:26:41.083872,15.31721302,.00012741,53.1576,127.1744,89.7036,270.4111,0,U,65324,999,4553,.72160981E-3,.22109E-3,0
STARLINK-34911,2025-189C,2026-06-12T04:49:39.480096,15.30207546,.00011679,53.1553,127.9802,77.6812,282.4319,0,U,65325,999,4557,.10154058E-2,.29842E-3,0
STARLINK-34902,2025-189D,2026-06-12T04:32:56.577408,15.30203762,.00011934,53.1565,127.9071,79.9188,280.1947,0,U,65326,999,4557,.7502066E-3,.21928E-3,0
STARLINK-34880,2025-189E,2026-06-12T04:35:58.927200,15.30205379,.00011846,53.1565,127.9239,83.6693,276.4443,0,U,65327,999,4557,.74484631E-3,.21769E-3,0
STARLINK-34885,2025-189F,2026-06-12T04:53:05.216640,15.31712808,.00016407,53.1569,127.2882,96.0201,264.0987,0,U,65328,999,4552,.64385561E-3,.19675E-3,0
STARLINK-34908,2025-189G,2026-06-12T04:17:44.712672,15.30200248,.0001237,53.1575,127.8409,90.6529,269.4613,0,U,65329,999,4557,.11137731E-2,.32773E-3,0
STARLINK-34864,2025-189H,2026-06-12T03:53:12.651072,15.31723555,.00012141,53.1597,127.7379,91.5571,268.5569,0,U,65330,999,4557,.11662823E-2,.36028E-3,0
STARLINK-34918,2025-189J,2026-06-12T04:32:55.201920,15.31722555,.00012381,53.1572,127.1935,87.9402,272.1741,0,U,65331,999,4552,.58521372E-3,.17851E-3,0
STARLINK-33890,2025-189K,2026-06-12T04:40:07.103424,15.31719880,.00011612,53.1566,127.2210,81.1869,278.9264,0,U,65332,999,4438,.61455192E-3,.18765E-3,0
STARLINK-34602,2025-189L,2026-06-12T04:53:33.780480,15.31720673,.00013694,53.1575,127.2802,74.9928,285.1225,0,U,65333,999,4558,.76807238E-3,.2356E-3,0
STARLINK-34878,2025-189M,2026-06-12T03:58:00.852096,15.30172347,.00011998,53.1583,127.7599,82.9120,277.2017,0,U,65334,999,4557,.90020958E-3,.26374E-3,0
STARLINK-34874,2025-189N,2026-06-12T03:24:42.998112,15.30205145,.00013015,53.1564,128.3124,127.0490,233.0630,0,U,65335,999,4556,.55630487E-3,.16155E-3,0
STARLINK-34835,2025-189P,2026-06-12T05:03:21.348000,15.30219522,.00012351,53.1569,128.0355,94.2569,265.8573,0,U,65336,999,4557,.61387632E-3,.17877E-3,0
STARLINK-34854,2025-189Q,2026-06-12T05:20:26.979936,15.31711336,.00013751,53.1607,127.4037,92.3260,267.7898,0,U,65337,999,4552,.58804358E-3,.17933E-3,0
STARLINK-34751,2025-189R,2026-06-12T20:00:01.999008,15.31684010,.0001342,53.1570,124.4050,100.2074,107.1875,0,U,65338,999,586,.18222E-2,.56581E-3,0
STARLINK-34777,2025-189S,2026-06-12T05:07:00.429024,15.31713021,.00013302,53.1576,127.3462,93.2332,266.8822,0,U,65339,999,4559,.47758428E-3,.1449E-3,0
STARLINK-35020,2025-189T,2026-06-12T04:12:45.475776,15.31708760,.00013093,53.1578,127.1102,95.4389,264.6762,0,U,65340,999,4553,.95719749E-3,.29463E-3,0
STARLINK-35016,2025-189U,2026-06-12T04:28:23.007360,15.30203642,.00011344,53.1567,127.8814,80.0276,280.0852,0,U,65341,999,4552,.69281876E-3,.20218E-3,0
STARLINK-35092,2025-189V,2026-06-12T04:19:28.697664,15.31718512,.00014823,53.1576,127.1438,117.0300,243.0853,0,U,65342,999,4549,.66079348E-3,.20208E-3,0
STARLINK-34838,2025-189W,2026-06-12T05:04:51.115872,15.30205806,.0001344,53.1576,128.0385,87.6651,272.4504,0,U,65343,999,4558,.32250227E-3,.9206E-4,0
STARLINK-35088,2025-189X,2026-06-12T04:54:12.919680,15.30204998,.00013115,53.1566,127.9967,89.2445,270.8706,0,U,65344,999,4558,.86776484E-3,.25434E-3,0
STARLINK-34831,2025-189Y,2026-06-12T05:13:43.879872,15.31705363,.00012185,53.1569,127.3704,96.7211,263.3930,0,U,65345,999,4559,.72989661E-3,.22356E-3,0
STARLINK-34873,2025-189Z,2026-06-12T05:10:46.210368,15.30204224,.00014467,53.1587,127.3582,92.4753,267.6413,0,U,65346,999,4559,.25181869E-3,.7107E-4,0
STARLINK-34881,2025-189AA,2026-06-12T03:25:55.523136,15.36332978,.00288384,53.1568,127.6147,272.7856,86.9847,0,U,65347,999,4557,.8177916E-1,.3344876E-1,0
STARLINK-34859,2025-189AB,2026-06-12T04:40:33.728448,15.30176880,.00015603,53.1563,127.9410,106.4571,253.6601,0,U,65348,999,4557,.15340055E-2,.45319E-3,0
STARLINK-34895,2025-189AC,2026-06-12T04:46:21.828000,15.31715854,.00011285,53.1558,127.2517,76.8634,283.2494,0,U,65349,999,4554,.6092966E-3,.18599E-3,0
STARLINK-34892,2025-189AD,2026-06-12T04:26:12.206400,15.31719204,.00012612,53.1576,127.1673,89.1441,270.9705,0,U,65350,999,4553,.76499544E-3,.23463E-3,0
STARLINK-34244,2025-190A,2026-06-12T02:26:47.360256,15.34413422,.00011649,53.1584,88.7125,108.0399,252.0730,0,U,65351,999,4422,.72738872E-3,.2429E-3,0
STARLINK-34716,2025-190B,2026-06-12T01:26:55.092768,15.30188292,.00004382,53.1603,89.8505,74.6319,285.4730,0,U,65352,999,4420,.26427578E-3,.7473E-4,0
STARLINK-34828,2025-190C,2026-06-12T02:22:59.736000,15.30230430,.00013125,53.1585,89.3747,91.8981,268.2170,0,U,65353,999,4421,.55793273E-3,.16217E-3,0
STARLINK-34785,2025-190D,2026-06-12T01:44:29.847552,15.34409297,.00011038,53.1595,89.2194,87.1776,272.9353,0,U,65354,999,4374,.72925944E-3,.2435E-3,0
